[{"OBJECT_NAME":"STARLINK-36480","OBJECT_ID":"2026-003C","EPOCH":"2026-03-08T12:32:06.804672","MEAN_MOTION":15.2760571,"ECCENTRICITY":0.00016268,"INCLINATION":42.9986,"RA_OF_ASC_NODE":233.8057,"ARG_OF_PERICENTER":243.2269,"MEAN_ANOMALY":116.8416,"EPHEMERIS_TYPE":0,"CLASSIFICATION_TYPE":"U","NORAD_CAT_ID":67336,"ELEMENT_SET_NO":999,"REV_AT_EPOCH":864,"BSTAR":0.0012182774,"MEAN_MOTION_DOT":0.00033441,"MEAN_MOTION_DDOT":0},{"OBJECT_NAME":"FENGYUN 1C DEB","OBJECT_ID":"1999-025EJQ","EPOCH":"2026-03-08T21:27:56.444256","MEAN_MOTION":15.23229897,"ECCENTRICITY":0.00101559,"INCLINATION":98.6645,"RA_OF_ASC_NODE":227.592,"ARG_OF_PERICENTER":263.6857,"MEAN_ANOMALY":96.3219,"EPHEMERIS_TYPE":0,"CLASSIFICATION_TYPE":"U","NORAD_CAT_ID":37470,"ELEMENT_SET_NO":999,"REV_AT_EPOCH":66762,"BSTAR":0.011057202,"MEAN_MOTION_DOT":0.00271626,"MEAN_MOTION_DDOT":0}]
